GLOBALSTAR M045         
1 25676U 99019A   25268.80752672 -.00000126  00000+0 -28736-3 0  9993
2 25676  52.0001  18.4778 0000824  97.0379  71.7101 12.27065174205740
GLOBALSTAR M019         
1 25677U 99019B   25268.71780676 -.00000122  00000+0 -33168-3 0  9990
2 25677  51.9868 156.1757 0001316 127.5070 266.5868 12.13877675197354
GLOBALSTAR M044         
1 25678U 99019C   25268.87988471  .00000002  00000+0  11980-2 0  9993
2 25678  51.9948 119.6822 0005293 230.9262 231.8580 11.90260098183317
GLOBALSTAR M042         
1 25679U 99019D   25268.91871228 -.00000032  00000+0  56546-3 0  9992
2 25679  51.9997 126.5857 0003384 131.8781 330.6011 12.22088232197575
GLOBALSTAR M025         
1 25770U 99031A   25268.37997934 -.00000076  00000+0 -25062-3 0  9999
2 25770  51.9812 287.1702 0002074 314.1405  58.7453 11.22558205492960
GLOBALSTAR M049         
1 25771U 99031B   25268.38714626 -.00000085  00000+0 -69398-3 0  9996
2 25771  51.9908 326.9540 0002957 181.8783 178.2003 11.12122884128578
GLOBALSTAR M047         
1 25772U 99031C   25268.37847086 -.00000056  00000+0  36861-3 0  9999
2 25772  51.9849 314.3704 0016534  75.4149 284.8489 11.31929771482459
GLOBALSTAR M052         
1 25773U 99031D   25268.91808402 -.00000056  00000+0  34725-3 0  9996
2 25773  51.9861  73.0003 0002405   1.4485 139.2474 11.15061157489742
